0 NIMBUS 2 DEB
1 28611U 66040AA  13290.76273531  .00004435  00000-0  46689-2 0  2032
2 28611 100.2099 122.3338 0055987 102.7618 259.2848 13.74666545496578
0 NIMBUS 2 DEB
1 28611U 66040AA  13291.34472944  .00004877  00000-0  51288-2 0  2048
2 28611 100.2037 122.9361 0054881 101.2197 259.5369 13.74679681496655
0 NIMBUS 2 DEB
1 28611U 66040AA  13293.74649936  .00005180  00000-0  54436-2 0  2058
2 28611 100.2013 125.4996 0054141 094.3428 266.4441 13.74710010496985
